[{"OBJECT_NAME":"TIANHUI 5D","OBJECT_ID":"2024-126B","EPOCH":"2026-03-09T13:08:56.533920","MEAN_MOTION":14.87585442,"ECCENTRICITY":0.0002106,"INCLINATION":97.8217,"RA_OF_ASC_NODE":77.5266,"ARG_OF_PERICENTER":94.6476,"MEAN_ANOMALY":265.4981,"EPHEMERIS_TYPE":0,"CLASSIFICATION_TYPE":"U","NORAD_CAT_ID":60212,"ELEMENT_SET_NO":999,"REV_AT_EPOCH":9108,"BSTAR":7.9344e-5,"MEAN_MOTION_DOT":6.67e-6,"MEAN_MOTION_DDOT":0},{"OBJECT_NAME":"SL-14 R\/B","OBJECT_ID":"1985-069B","EPOCH":"2026-03-09T22:43:57.776736","MEAN_MOTION":14.8643353,"ECCENTRICITY":0.00184951,"INCLINATION":82.5286,"RA_OF_ASC_NODE":24.6907,"ARG_OF_PERICENTER":186.8367,"MEAN_ANOMALY":173.26,"EPHEMERIS_TYPE":0,"CLASSIFICATION_TYPE":"U","NORAD_CAT_ID":15945,"ELEMENT_SET_NO":999,"REV_AT_EPOCH":17287,"BSTAR":7.8245878e-5,"MEAN_MOTION_DOT":7.17e-6,"MEAN_MOTION_DDOT":0}]
